{
  "type": "FeatureCollection",
  "features": [
    {
      "type": "Feature",
      "properties": {
        "norad_id": 67154,
        "name": "KUIPER-00249",
        "group": "last-30-days",
        "lat": 27.706106800597052,
        "lon": 79.98083455701841,
        "alt_km": 459.4180002599087,
        "timestamp": "2025-12-27T03:58:42.935573+00:00",
        "meta_object_name": "KUIPER-00249",
        "meta_object_id": "2025-301X",
        "meta_epoch": "2025-12-26T15:19:11.134848",
        "meta_mean_motion": 15.34823508,
        "meta_eccentricity": 0.00081,
        "meta_inclination": 51.8653,
        "meta_ra_of_asc_node": 58.1564,
        "meta_arg_of_pericenter": 139.941,
        "meta_mean_anomaly": 220.2175,
        "meta_ephemeris_type": 0,
        "meta_classification_type": "U",
        "meta_norad_cat_id": 67154,
        "meta_element_set_no": 999,
        "meta_rev_at_epoch": 250,
        "meta_bstar": 0.00085989,
        "meta_mean_motion_dot": 0.00029236,
        "meta_mean_motion_ddot": 0,
        "tle_line1": "1 67154U 25301X   25360.63832332  .00029236  00000+0  85989-3 0  9993",
        "tle_line2": "2 67154  51.8653  58.1564 0008100 139.9410 220.2175 15.34823508  2503"
      },
      "geometry": {
        "type": "Point",
        "coordinates": [
          79.98083455701841,
          27.706106800597052
        ]
      }
    },
    {
      "type": "Feature",
      "properties": {
        "norad_id": 67155,
        "name": "KUIPER-00250",
        "group": "last-30-days",
        "lat": 40.321124810907065,
        "lon": 97.38049460793721,
        "alt_km": 453.32779537266197,
        "timestamp": "2025-12-27T03:58:42.935582+00:00",
        "meta_object_name": "KUIPER-00250",
        "meta_object_id": "2025-301Y",
        "meta_epoch": "2025-12-26T15:14:29.262624",
        "meta_mean_motion": 15.35370073,
        "meta_eccentricity": 0.000624,
        "meta_inclination": 51.8715,
        "meta_ra_of_asc_node": 58.1338,
        "meta_arg_of_pericenter": 130.2941,
        "meta_mean_anomaly": 229.8591,
        "meta_ephemeris_type": 0,
        "meta_classification_type": "U",
        "meta_norad_cat_id": 67155,
        "meta_element_set_no": 999,
        "meta_rev_at_epoch": 253,
        "meta_bstar": 0.00084888,
        "meta_mean_motion_dot": 0.00029358,
        "meta_mean_motion_ddot": 0,
        "tle_line1": "1 67155U 25301Y   25360.63506091  .00029358  00000+0  84888-3 0  9996",
        "tle_line2": "2 67155  51.8715  58.1338 0006240 130.2941 229.8591 15.35370073  2533"
      },
      "geometry": {
        "type": "Point",
        "coordinates": [
          97.38049460793721,
          40.321124810907065
        ]
      }
    },
    {
      "type": "Feature",
      "properties": {
        "norad_id": 67156,
        "name": "KUIPER-00251",
        "group": "last-30-days",
        "lat": 24.54344030656137,
        "lon": 76.64604413551525,
        "alt_km": 460.3803767141917,
        "timestamp": "2025-12-27T03:58:42.935593+00:00",
        "meta_object_name": "KUIPER-00251",
        "meta_object_id": "2025-301Z",
        "meta_epoch": "2025-12-26T15:20:18.387744",
        "meta_mean_motion": 15.34794128,
        "meta_eccentricity": 0.0008753,
        "meta_inclination": 51.8668,
        "meta_ra_of_asc_node": 58.1618,
        "meta_arg_of_pericenter": 138.1231,
        "meta_mean_anomaly": 222.0426,
        "meta_ephemeris_type": 0,
        "meta_classification_type": "U",
        "meta_norad_cat_id": 67156,
        "meta_element_set_no": 999,
        "meta_rev_at_epoch": 269,
        "meta_bstar": 0.00093482,
        "meta_mean_motion_dot": 0.00031803,
        "meta_mean_motion_ddot": 0,
        "tle_line1": "1 67156U 25301Z   25360.63910171  .00031803  00000+0  93482-3 0  9993",
        "tle_line2": "2 67156  51.8668  58.1618 0008753 138.1231 222.0426 15.34794128  2691"
      },
      "geometry": {
        "type": "Point",
        "coordinates": [
          76.64604413551525,
          24.54344030656137
        ]
      }
    },
    {
      "type": "Feature",
      "properties": {
        "norad_id": 67157,
        "name": "KUIPER-00252",
        "group": "last-30-days",
        "lat": 11.681878441238833,
        "lon": 65.005845884509,
        "alt_km": 466.97403977460544,
        "timestamp": "2025-12-27T03:58:42.935602+00:00",
        "meta_object_name": "KUIPER-00252",
        "meta_object_id": "2025-301AA",
        "meta_epoch": "2025-12-26T18:32:03.943104",
        "meta_mean_motion": 15.34306319,
        "meta_eccentricity": 0.000995,
        "meta_inclination": 51.8656,
        "meta_ra_of_asc_node": 57.5526,
        "meta_arg_of_pericenter": 150.1041,
        "meta_mean_anomaly": 210.0515,
        "meta_ephemeris_type": 0,
        "meta_classification_type": "U",
        "meta_norad_cat_id": 67157,
        "meta_element_set_no": 999,
        "meta_rev_at_epoch": 252,
        "meta_bstar": 0.00068968,
        "meta_mean_motion_dot": 0.00022979,
        "meta_mean_motion_ddot": 0,
        "tle_line1": "1 67157U 25301AA  25360.77226786  .00022979  00000+0  68968-3 0  9996",
        "tle_line2": "2 67157  51.8656  57.5526 0009950 150.1041 210.0515 15.34306319  2522"
      },
      "geometry": {
        "type": "Point",
        "coordinates": [
          65.005845884509,
          11.681878441238833
        ]
      }
    },
    {
      "type": "Feature",
      "properties": {
        "norad_id": 67158,
        "name": "KUIPER-00261",
        "group": "last-30-days",
        "lat": 43.6507483217808,
        "lon": 104.09779691215242,
        "alt_km": 452.12809021648445,
        "timestamp": "2025-12-27T03:58:42.935612+00:00",
        "meta_object_name": "KUIPER-00261",
        "meta_object_id": "2025-301AB",
        "meta_epoch": "2025-12-26T15:12:57.910176",
        "meta_mean_motion": 15.35442331,
        "meta_eccentricity": 0.0005676,
        "meta_inclination": 51.8699,
        "meta_ra_of_asc_node": 58.1286,
        "meta_arg_of_pericenter": 127.6885,
        "meta_mean_anomaly": 232.4616,
        "meta_ephemeris_type": 0,
        "meta_classification_type": "U",
        "meta_norad_cat_id": 67158,
        "meta_element_set_no": 999,
        "meta_rev_at_epoch": 250,
        "meta_bstar": 0.00094696,
        "meta_mean_motion_dot": 0.00032883,
        "meta_mean_motion_ddot": 0,
        "tle_line1": "1 67158U 25301AB  25360.63400359  .00032883  00000+0  94696-3 0  9994",
        "tle_line2": "2 67158  51.8699  58.1286 0005676 127.6885 232.4616 15.35442331  2500"
      },
      "geometry": {
        "type": "Point",
        "coordinates": [
          104.09779691215242,
          43.6507483217808
        ]
      }
    },
    {
      "type": "Feature",
      "properties": {
        "norad_id": 67159,
        "name": "KUIPER-00265",
        "group": "last-30-days",
        "lat": 50.83108489615392,
        "lon": 160.8884795979594,
        "alt_km": 448.2052166114345,
        "timestamp": "2025-12-27T03:58:42.935621+00:00",
        "meta_object_name": "KUIPER-00265",
        "meta_object_id": "2025-301AC",
        "meta_epoch": "2025-12-26T16:37:11.419392",
        "meta_mean_motion": 15.36447148,
        "meta_eccentricity": 0.0001964,
        "meta_inclination": 51.8737,
        "meta_ra_of_asc_node": 57.7669,
        "meta_arg_of_pericenter": 98.7269,
        "meta_mean_anomaly": 261.394,
        "meta_ephemeris_type": 0,
        "meta_classification_type": "U",
        "meta_norad_cat_id": 67159,
        "meta_element_set_no": 999,
        "meta_rev_at_epoch": 254,
        "meta_bstar": 0.0011135,
        "meta_mean_motion_dot": 0.00040036,
        "meta_mean_motion_ddot": 0,
        "tle_line1": "1 67159U 25301AC  25360.69249328  .00040036  00000+0  11135-2 0  9993",
        "tle_line2": "2 67159  51.8737  57.7669 0001964  98.7269 261.3940 15.36447148  2541"
      },
      "geometry": {
        "type": "Point",
        "coordinates": [
          160.8884795979594,
          50.83108489615392
        ]
      }
    },
    {
      "type": "Feature",
      "properties": {
        "norad_id": 67160,
        "name": "GALILEO A",
        "group": "last-30-days",
        "lat": -27.36768448619593,
        "lon": -51.145463530319105,
        "alt_km": 22924.77530374393,
        "timestamp": "2025-12-27T03:58:42.935631+00:00",
        "meta_object_name": "GALILEO A",
        "meta_object_id": "2025-302A",
        "meta_epoch": "2025-12-18T03:30:19.486368",
        "meta_mean_motion": 1.72906186,
        "meta_eccentricity": 0.00084238,
        "meta_inclination": 54.2406,
        "meta_ra_of_asc_node": 107.2544,
        "meta_arg_of_pericenter": 237.6458,
        "meta_mean_anomaly": 122.2317,
        "meta_ephemeris_type": 0,
        "meta_classification_type": "U",
        "meta_norad_cat_id": 67160,
        "meta_element_set_no": 999,
        "meta_rev_at_epoch": 2,
        "meta_bstar": 0,
        "meta_mean_motion_dot": -7e-08,
        "meta_mean_motion_ddot": 0,
        "tle_line1": "1 67160U 25302A   25352.14605887 -.00000007  00000+0  00000+0 0  9994",
        "tle_line2": "2 67160  54.2406 107.2544 0008423 237.6458 122.2317  1.72906186    28"
      },
      "geometry": {
        "type": "Point",
        "coordinates": [
          -51.145463530319105,
          -27.36768448619593
        ]
      }
    }
  ]
}